[{"OBJECT_NAME":"STARLINK-6359","OBJECT_ID":"2023-099U","EPOCH":"2026-03-09T22:00:01.999584","MEAN_MOTION":15.13701843,"ECCENTRICITY":0.00012087,"INCLINATION":42.9993,"RA_OF_ASC_NODE":246.9372,"ARG_OF_PERICENTER":257.6436,"MEAN_ANOMALY":334.656,"EPHEMERIS_TYPE":0,"CLASSIFICATION_TYPE":"U","NORAD_CAT_ID":57346,"ELEMENT_SET_NO":999,"REV_AT_EPOCH":578,"BSTAR":0.0068353409,"MEAN_MOTION_DOT":0.00127287,"MEAN_MOTION_DDOT":0},{"OBJECT_NAME":"FORESAIL-1 PRIME","OBJECT_ID":"2025-276DS","EPOCH":"2026-03-09T22:28:09.304320","MEAN_MOTION":15.17695918,"ECCENTRICITY":0.00039797,"INCLINATION":97.4274,"RA_OF_ASC_NODE":144.0627,"ARG_OF_PERICENTER":95.0578,"MEAN_ANOMALY":265.111,"EPHEMERIS_TYPE":0,"CLASSIFICATION_TYPE":"U","NORAD_CAT_ID":66778,"ELEMENT_SET_NO":999,"REV_AT_EPOCH":1534,"BSTAR":0.00034805392,"MEAN_MOTION_DOT":6.952e-5,"MEAN_MOTION_DDOT":0}]
